NORAD_CAT_ID,OBJECT_NAME,OBJECT_TYPE,EPOCH,MEAN_MOTION,ECCENTRICITY,INCLINATION,RA_OF_ASC_NODE,ARG_OF_PERICENTER,MEAN_ANOMALY,BSTAR,MEAN_MOTION_DOT,MEAN_MOTION_DDOT,TLE_LINE0,TLE_LINE1,TLE_LINE2,SEMIMAJOR_AXIS,PERIOD,APOGEE,PERIGEE,DECAYED
53154.0,STARLINK-4077,PAYLOAD,2024-07-31 10:44:04,15.08842314,0.0001903,53.2193,275.8627,102.7475,257.373,8.8512e-05,1.121e-05,0.0,0 STARLINK-4077,1 53154U 22083Y   24213.44727396  .00001121  00000-0  88512-4 0  9990,2 53154  53.2193 275.8627 0001903 102.7475 257.3730 15.08842314113489,6917.873,95.437,541.055,538.422,0.0
53154.0,STARLINK-4077,PAYLOAD,2024-07-31 13:54:50,15.08843401,0.0001671,53.22,275.2687,107.2714,252.8461,2.9995e-05,1.89e-06,0.0,0 STARLINK-4077,1 53154U 22083Y   24213.57975404  .00000189  00000-0  29995-4 0  9992,2 53154  53.2200 275.2687 0001671 107.2714 252.8461 15.08843401112877,6917.87,95.437,540.891,538.579,0.0
53154.0,STARLINK-4077,PAYLOAD,2024-08-01 10:34:51,15.08842657,0.000118,53.2161,271.407,91.1234,268.9894,0.00016904,2.404e-05,0.0,0 STARLINK-4077,1 53154U 22083Y   24214.44086988  .00002404  00000-0  16904-3 0  9996,2 53154  53.2161 271.4070 0001180  91.1234 268.9894 15.08842657113006,6917.872,95.437,540.554,538.921,0.0
53154.0,STARLINK-4077,PAYLOAD,2024-08-02 10:25:39,15.08829857,0.0001413,53.2167,266.943,100.7137,259.4014,-9.1014e-06,-4.33e-06,0.0,0 STARLINK-4077,1 53154U 22083Y   24215.43448349 -.00000433  00000-0 -91014-5 0  9998,2 53154  53.2167 266.9430 0001413 100.7137 259.4014 15.08829857113780,6917.911,95.438,540.754,538.799,0.0
53154.0,STARLINK-4077,PAYLOAD,2024-08-02 13:36:26,15.08820641,0.0001268,53.2167,266.3499,100.556,259.5575,2.4607e-05,1.04e-06,0.0,0 STARLINK-4077,1 53154U 22083Y   24215.56696906  .00000104  00000-0  24607-4 0  9992,2 53154  53.2167 266.3499 0001268 100.5560 259.5575 15.08820641113173,6917.94,95.439,540.682,538.927,0.0
53154.0,STARLINK-4077,PAYLOAD,2024-08-02 19:57:58,15.08835405,0.000131,53.2166,265.1626,102.1008,258.0131,-2.5144e-05,-6.88e-06,0.0,0 STARLINK-4077,1 53154U 22083Y   24215.83192156 -.00000688  00000-0 -25144-4 0  9996,2 53154  53.2166 265.1626 0001310 102.1008 258.0131 15.08835405113215,6917.894,95.438,540.666,538.853,0.0
53154.0,STARLINK-4077,PAYLOAD,2024-08-03 10:16:25,15.08845724,0.0001213,53.2158,262.4868,97.3643,262.7487,3.0349e-05,1.95e-06,0.0,0 STARLINK-4077,1 53154U 22083Y   24216.42807478  .00000195  00000-0  30349-4 0  9996,2 53154  53.2158 262.4868 0001213  97.3643 262.7487 15.08845724113936,6917.863,95.437,540.567,538.889,0.0
53154.0,STARLINK-4077,PAYLOAD,2024-08-03 13:27:11,15.08847785,0.0001246,53.2161,261.8914,96.5167,263.5967,6.22e-05,7.02e-06,0.0,0 STARLINK-4077,1 53154U 22083Y   24216.56055267  .00000702  00000-0  62200-4 0  9997,2 53154  53.2161 261.8914 0001246  96.5167 263.5967 15.08847785113327,6917.857,95.437,540.584,538.86,0.0
53154.0,STARLINK-4077,PAYLOAD,2024-08-03 19:48:43,15.08854143,0.0001268,53.2164,260.7022,96.6245,263.4891,8.3531e-05,1.042e-05,0.0,0 STARLINK-4077,1 53154U 22083Y   24216.82550656  .00001042  00000-0  83531-4 0  9996,2 53154  53.2164 260.7022 0001268  96.6245 263.4891 15.08854143113994,6917.837,95.437,540.579,538.825,0.0
53154.0,STARLINK-4077,PAYLOAD,2024-08-04 03:45:40,15.08829991,0.0001968,53.2174,259.2213,108.4797,251.6409,0.00016386,2.32e-05,0.0,0 STARLINK-4077,1 53154U 22083Y   24217.15672190  .00002320  00000-0  16386-3 0  9994,2 53154  53.2174 259.2213 0001968 108.4797 251.6409 15.08829991114045,6917.911,95.438,541.137,538.415,0.0
53154.0,STARLINK-4077,PAYLOAD,2024-08-04 11:42:36,15.08831334,0.0001393,53.2165,257.7285,94.0791,266.036,0.00012856,1.758e-05,0.0,0 STARLINK-4077,1 53154U 22083Y   24217.48792481  .00001758  00000-0  12856-3 0  9998,2 53154  53.2165 257.7285 0001393  94.0791 266.0360 15.08831334113468,6917.907,95.438,540.736,538.808,0.0
53154.0,STARLINK-4077,PAYLOAD,2024-08-04 19:39:31,15.08846057,0.0001368,53.2164,256.2418,93.5791,266.5357,0.00022767,3.338e-05,0.0,0 STARLINK-4077,1 53154U 22083Y   24217.81911513  .00003338  00000-0  22767-3 0  9992,2 53154  53.2164 256.2418 0001368  93.5791 266.5357 15.08846057114140,6917.862,95.437,540.673,538.781,0.0
53154.0,STARLINK-4077,PAYLOAD,2024-08-05 08:22:37,15.08846283,0.0001557,53.2171,253.8631,91.7203,268.3968,4.2734e-05,3.92e-06,0.0,0 STARLINK-4077,1 53154U 22083Y   24218.34903966  .00000392  00000-0  42734-4 0  9998,2 53154  53.2171 253.8631 0001557  91.7203 268.3968 15.08846283114224,6917.861,95.437,540.803,538.649,0.0
53154.0,STARLINK-4077,PAYLOAD,2024-08-05 19:30:18,15.08851413,0.0001583,53.2172,251.782,90.1237,269.9936,6.0737e-05,6.79e-06,0.0,0 STARLINK-4077,1 53154U 22083Y   24218.81271284  .00000679  00000-0  60737-4 0  9992,2 53154  53.2172 251.7820 0001583  90.1237 269.9936 15.08851413113661,6917.846,95.437,540.806,538.615,0.0
53154.0,STARLINK-4077,PAYLOAD,2024-08-06 01:51:52,15.08833807,0.0001658,53.216,250.5905,89.3784,270.7398,-0.00012649,-2.3e-05,0.0,0 STARLINK-4077,1 53154U 22083Y   24219.07768842 -.00002300  00000-0 -12649-3 0  9995,2 53154  53.2160 250.5905 0001658  89.3784 270.7398 15.08833807114333,6917.899,95.438,540.911,538.617,0.0
53154.0,STARLINK-4077,PAYLOAD,2024-08-06 09:48:47,15.0882963,0.00014,53.2148,249.1055,92.2068,267.9084,-6.1327e-05,-1.264e-05,0.0,0 STARLINK-4077,1 53154U 22083Y   24219.40888580 -.00001264  00000-0 -61327-4 0  9990,2 53154  53.2148 249.1055 0001400  92.2068 267.9084 15.08829630113756,6917.912,95.438,540.746,538.809,0.0
53154.0,STARLINK-4077,PAYLOAD,2024-08-07 11:14:57,15.08849667,0.0001404,53.2143,244.346,100.1009,260.0141,0.00021558,3.146e-05,0.0,0 STARLINK-4077,1 53154U 22083Y   24220.46871925  .00003146  00000-0  21558-3 0  9993,2 53154  53.2143 244.3460 0001404 100.1009 260.0141 15.08849667114544,6917.851,95.437,540.687,538.745,0.0
53154.0,STARLINK-4077,PAYLOAD,2024-08-08 11:05:44,15.08847848,0.0001437,53.2144,239.884,99.514,260.6015,0.00028568,4.263e-05,0.0,0 STARLINK-4077,1 53154U 22083Y   24221.46232097  .00004263  00000-0  28568-3 0  9994,2 53154  53.2144 239.8840 0001437  99.5140 260.6015 15.08847848114061,6917.856,95.437,540.715,538.727,0.0
53154.0,STARLINK-4077,PAYLOAD,2024-08-09 04:34:59,15.08843552,0.0001445,53.2148,236.6121,100.8361,259.2793,3.0804e-05,2.02e-06,0.0,0 STARLINK-4077,1 53154U 22083Y   24222.19096073  .00000202  00000-0  30804-4 0  9993,2 53154  53.2148 236.6121 0001445 100.8361 259.2793 15.08843552114809,6917.87,95.437,540.734,538.735,0.0
53154.0,STARLINK-4077,PAYLOAD,2024-08-09 06:10:22,15.0884271,0.0001443,53.215,236.3148,101.9536,258.1618,1.1269e-05,-1.09e-06,0.0,0 STARLINK-4077,1 53154U 22083Y   24222.25720069 -.00000109  00000-0  11269-4 0  9990,2 53154  53.2150 236.3148 0001443 101.9536 258.1618 15.08842710114182,6917.872,95.437,540.735,538.739,0.0
53154.0,STARLINK-4077,PAYLOAD,2024-08-10 04:25:46,15.0883707,0.0001372,53.2157,232.1514,97.6706,262.4442,2.0778e-05,4.3e-07,0.0,0 STARLINK-4077,1 53154U 22083Y   24223.18456486  .00000043  00000-0  20778-4 0  9993,2 53154  53.2157 232.1514 0001372  97.6706 262.4442 15.08837070114952,6917.889,95.438,540.703,538.805,0.0
53154.0,STARLINK-4077,PAYLOAD,2024-08-11 07:27:20,15.08835108,0.0001389,53.2164,227.1002,98.9342,261.1807,7.9169e-05,9.72e-06,0.0,0 STARLINK-4077,1 53154U 22083Y   24224.31064832  .00000972  00000-0  79169-4 0  9998,2 53154  53.2164 227.1002 0001389  98.9342 261.1807 15.08835108115125,6917.895,95.438,540.721,538.799,0.0
53154.0,STARLINK-4077,PAYLOAD,2024-08-11 16:59:38,15.08842047,0.0001395,53.2166,225.3154,97.7168,262.3982,0.00012135,1.644e-05,0.0,0 STARLINK-4077,1 53154U 22083Y   24224.70808381  .00001644  00000-0  12135-3 0  9992,2 53154  53.2166 225.3154 0001395  97.7168 262.3982 15.08842047114558,6917.874,95.437,540.704,538.774,0.0
53154.0,STARLINK-4077,PAYLOAD,2024-08-12 10:28:52,15.08846477,0.0001697,53.2163,222.0408,103.5835,256.5347,0.00019228,2.774e-05,0.0,0 STARLINK-4077,1 53154U 22083Y   24225.43672160  .00002774  00000-0  19228-3 0  9992,2 53154  53.2163 222.0408 0001697 103.5835 256.5347 15.08846477115296,6917.861,95.437,540.9,538.552,0.0
53154.0,STARLINK-4077,PAYLOAD,2024-08-12 16:50:24,15.08863484,0.0001678,53.2167,220.8556,86.8603,273.2581,0.00040266,6.13e-05,0.0,0 STARLINK-4077,1 53154U 22083Y   24225.70167208  .00006130  00000-0  40266-3 0  9990,2 53154  53.2167 220.8556 0001678  86.8603 273.2581 15.08863484115333,6917.809,95.436,540.834,538.513,0.0
53154.0,STARLINK-4077,PAYLOAD,2024-08-13 08:44:16,15.08840753,0.000139,53.2166,217.8816,89.2827,270.8324,3.6741e-05,2.97e-06,0.0,0 STARLINK-4077,1 53154U 22083Y   24226.36408056  .00000297  00000-0  36741-4 0  9994,2 53154  53.2166 217.8816 0001390  89.2827 270.8324 15.08840753115436,6917.878,95.438,540.705,538.782,0.0
53154.0,STARLINK-4077,PAYLOAD,2024-08-14 05:24:18,15.08831595,0.0001344,53.2148,214.0145,85.4704,274.6442,-4.6013e-05,-1.02e-05,0.0,0 STARLINK-4077,1 53154U 22083Y   24227.22520890 -.00001020  00000-0 -46013-4 0  9991,2 53154  53.2148 214.0145 0001344  85.4704 274.6442 15.08831595115562,6917.906,95.438,540.701,538.841,0.0
53154.0,STARLINK-4077,PAYLOAD,2024-08-14 08:35:04,15.08831383,0.0001334,53.2145,213.4202,87.2796,272.8348,-0.00013594,-2.45e-05,0.0,0 STARLINK-4077,1 53154U 22083Y   24227.35768955 -.00002450  00000-0 -13594-3 0  9996,2 53154  53.2145 213.4202 0001334  87.2796 272.8348 15.08831383114958,6917.907,95.438,540.695,538.849,0.0
53154.0,STARLINK-4077,PAYLOAD,2024-08-14 16:32:00,15.08831758,0.0001368,53.2144,211.9347,79.4848,280.6299,-0.00016871,-2.971e-05,0.0,0 STARLINK-4077,1 53154U 22083Y   24227.68889165 -.00002971  00000-0 -16871-3 0  9998,2 53154  53.2144 211.9347 0001368  79.4848 280.6299 15.08831758115003,6917.906,95.438,540.717,538.824,0.0
53154.0,STARLINK-4077,PAYLOAD,2024-08-15 05:15:06,15.08820002,0.0001716,53.2165,209.5518,97.4691,262.6496,-1.6109e-05,-5.44e-06,0.0,0 STARLINK-4077,1 53154U 22083Y   24228.21882455 -.00000544  00000-0 -16109-4 0  9992,2 53154  53.2165 209.5518 0001716  97.4691 262.6496 15.08820002115719,6917.942,95.439,540.994,538.619,0.0
